ONEWEB-0689             
1 61597U 24188D   25343.59330178  .00000568  00000+0  15656-2 0  9997
2 61597  87.8849  58.7901 0001354 105.4380 254.6898 13.11417393 59603
ONEWEB-0690             
1 61598U 24188E   25343.45087704  .00000250  00000+0  67014-3 0  9991
2 61598  87.8872  58.8307 0002405  96.1476 263.9926 13.11417048 59760
ONEWEB-0691             
1 61599U 24188F   25343.44579204  .00000539  00000+0  14847-2 0  9997
2 61599  87.8835  58.7340 0001724 119.3788 240.7513 13.11421990 59613
ONEWEB-0692             
1 61600U 24188G   25343.61872183 -.00000326  00000+0 -95645-3 0  9993
2 61600  87.8854  58.8435 0001338  70.0714 290.0558 13.11414895 59620
ONEWEB-0693             
1 61601U 24188H   25343.43086529  .00000030  00000+0  43088-4 0  9990
2 61601  87.9104  43.6501 0002591 100.4072 259.7351 13.17649042 60897
ONEWEB-0695             
1 61602U 24188J   25343.44240474  .00000537  00000+0  14799-2 0  9990
2 61602  87.8856  58.8673 0001156  94.4982 265.6279 13.11416646 59593
ONEWEB-0697             
1 61603U 24188K   25343.47460269 -.00000496  00000+0 -14349-2 0  9997
2 61603  87.8856  58.8515 0001422  74.6233 285.5052 13.11415468 59584
ONEWEB-0698             
1 61604U 24188L   25343.45258338  .00000159  00000+0  41326-3 0  9998
2 61604  87.8855  58.8707 0002242  74.3341 285.8034 13.11414154 59602
ONEWEB-0699             
1 61605U 24188M   25343.54349121  .00000459  00000+0  12777-2 0  9990
2 61605  87.8820  74.0659 0001488  78.5740 281.5554 13.10375530 58478
ONEWEB-0700             
1 61606U 24188N   25343.54514977  .00000514  00000+0  14353-2 0  9998
2 61606  87.8828  73.9507 0000908  91.4964 268.6268 13.10375393 58469
ONEWEB-0701             
1 61607U 24188P   25343.48539594  .00000558  00000+0  15625-2 0  9995
2 61607  87.8813  74.0786 0001447  72.3673 287.7612 13.10371482 58469
ONEWEB-0702             
1 61608U 24188Q   25343.49836173  .00000231  00000+0  61614-3 0  9998
2 61608  87.8833  58.7489 0001103  62.9116 297.2124 13.11423346 59628
ONEWEB-0704             
1 61609U 24188R   25343.55013347  .00000688  00000+0  19357-2 0  9998
2 61609  87.8828  74.0300 0000979  70.4786 289.6448 13.10375116 58457
ONEWEB-0705             
1 61610U 24188S   25343.55511350  .00000866  00000+0  24446-2 0  9990
2 61610  87.8816  74.0515 0000738 142.4404 217.6775 13.10374596 50620
ONEWEB-0706             
1 61611U 24188T   25343.54016889  .00000290  00000+0  79533-3 0  9996
2 61611  87.8811  74.0756 0001003  93.6851 266.4391 13.10375777 58549
ONEWEB-0707             
1 61612U 24188U   25343.31774620  .00000627  00000+0  17604-2 0  9990
2 61612  87.8824  74.0973 0001053  90.1270 269.9978 13.10374495 58452
ONEWEB-0708             
1 61613U 24188V   25343.48871451  .00000484  00000+0  13512-2 0  9994
2 61613  87.8805  74.0986 0001397 125.0994 235.0265 13.10371121 58454
