[{"OBJECT_NAME":"ONEWEB-0689","OBJECT_ID":"2024-188D","EPOCH":"2025-12-09T14:14:21.273792","MEAN_MOTION":13.11417393,"ECCENTRICITY":0.0001354,"INCLINATION":87.8849,"RA_OF_ASC_NODE":58.7901,"ARG_OF_PERICENTER":105.438,"MEAN_ANOMALY":254.6898,"EPHEMERIS_TYPE":0,"CLASSIFICATION_TYPE":"U","NORAD_CAT_ID":61597,"ELEMENT_SET_NO":999,"REV_AT_EPOCH":5960,"BSTAR":0.0015656429,"MEAN_MOTION_DOT":5.68e-6,"MEAN_MOTION_DDOT":0},{"OBJECT_NAME":"ONEWEB-0690","OBJECT_ID":"2024-188E","EPOCH":"2025-12-09T10:49:15.776256","MEAN_MOTION":13.11417048,"ECCENTRICITY":0.00024057,"INCLINATION":87.8872,"RA_OF_ASC_NODE":58.8307,"ARG_OF_PERICENTER":96.1476,"MEAN_ANOMALY":263.9926,"EPHEMERIS_TYPE":0,"CLASSIFICATION_TYPE":"U","NORAD_CAT_ID":61598,"ELEMENT_SET_NO":999,"REV_AT_EPOCH":5976,"BSTAR":0.00067013911,"MEAN_MOTION_DOT":2.5e-6,"MEAN_MOTION_DDOT":0},{"OBJECT_NAME":"ONEWEB-0691","OBJECT_ID":"2024-188F","EPOCH":"2025-12-09T10:41:56.432256","MEAN_MOTION":13.1142199,"ECCENTRICITY":0.00017244,"INCLINATION":87.8835,"RA_OF_ASC_NODE":58.734,"ARG_OF_PERICENTER":119.3788,"MEAN_ANOMALY":240.7513,"EPHEMERIS_TYPE":0,"CLASSIFICATION_TYPE":"U","NORAD_CAT_ID":61599,"ELEMENT_SET_NO":999,"REV_AT_EPOCH":5961,"BSTAR":0.0014847016,"MEAN_MOTION_DOT":5.39e-6,"MEAN_MOTION_DDOT":0},{"OBJECT_NAME":"ONEWEB-0692","OBJECT_ID":"2024-188G","EPOCH":"2025-12-09T14:50:57.566112","MEAN_MOTION":13.11414895,"ECCENTRICITY":0.00013381,"INCLINATION":87.8854,"RA_OF_ASC_NODE":58.8435,"ARG_OF_PERICENTER":70.0714,"MEAN_ANOMALY":290.0558,"EPHEMERIS_TYPE":0,"CLASSIFICATION_TYPE":"U","NORAD_CAT_ID":61600,"ELEMENT_SET_NO":999,"REV_AT_EPOCH":5962,"BSTAR":-0.00095644558,"MEAN_MOTION_DOT":-3.26e-6,"MEAN_MOTION_DDOT":0},{"OBJECT_NAME":"ONEWEB-0693","OBJECT_ID":"2024-188H","EPOCH":"2025-12-09T10:20:26.761056","MEAN_MOTION":13.17649042,"ECCENTRICITY":0.00025916,"INCLINATION":87.9104,"RA_OF_ASC_NODE":43.6501,"ARG_OF_PERICENTER":100.4072,"MEAN_ANOMALY":259.7351,"EPHEMERIS_TYPE":0,"CLASSIFICATION_TYPE":"U","NORAD_CAT_ID":61601,"ELEMENT_SET_NO":999,"REV_AT_EPOCH":6089,"BSTAR":4.30884e-5,"MEAN_MOTION_DOT":3.0e-7,"MEAN_MOTION_DDOT":0},{"OBJECT_NAME":"ONEWEB-0695","OBJECT_ID":"2024-188J","EPOCH":"2025-12-09T10:37:03.769536","MEAN_MOTION":13.11416646,"ECCENTRICITY":0.00011562,"INCLINATION":87.8856,"RA_OF_ASC_NODE":58.8673,"ARG_OF_PERICENTER":94.4982,"MEAN_ANOMALY":265.6279,"EPHEMERIS_TYPE":0,"CLASSIFICATION_TYPE":"U","NORAD_CAT_ID":61602,"ELEMENT_SET_NO":999,"REV_AT_EPOCH":5959,"BSTAR":0.0014798756,"MEAN_MOTION_DOT":5.37e-6,"MEAN_MOTION_DDOT":0},{"OBJECT_NAME":"ONEWEB-0697","OBJECT_ID":"2024-188K","EPOCH":"2025-12-09T11:23:25.672416","MEAN_MOTION":13.11415468,"ECCENTRICITY":0.00014228,"INCLINATION":87.8856,"RA_OF_ASC_NODE":58.8515,"ARG_OF_PERICENTER":74.6233,"MEAN_ANOMALY":285.5052,"EPHEMERIS_TYPE":0,"CLASSIFICATION_TYPE":"U","NORAD_CAT_ID":61603,"ELEMENT_SET_NO":999,"REV_AT_EPOCH":5958,"BSTAR":-0.0014349013,"MEAN_MOTION_DOT":-4.96e-6,"MEAN_MOTION_DDOT":0},{"OBJECT_NAME":"ONEWEB-0698","OBJECT_ID":"2024-188L","EPOCH":"2025-12-09T10:51:43.204032","MEAN_MOTION":13.11414154,"ECCENTRICITY":0.00022424,"INCLINATION":87.8855,"RA_OF_ASC_NODE":58.8707,"ARG_OF_PERICENTER":74.3341,"MEAN_ANOMALY":285.8034,"EPHEMERIS_TYPE":0,"CLASSIFICATION_TYPE":"U","NORAD_CAT_ID":61604,"ELEMENT_SET_NO":999,"REV_AT_EPOCH":5960,"BSTAR":0.0004132627,"MEAN_MOTION_DOT":1.59e-6,"MEAN_MOTION_DDOT":0},{"OBJECT_NAME":"ONEWEB-0699","OBJECT_ID":"2024-188M","EPOCH":"2025-12-09T13:02:37.640544","MEAN_MOTION":13.1037553,"ECCENTRICITY":0.00014885,"INCLINATION":87.882,"RA_OF_ASC_NODE":74.0659,"ARG_OF_PERICENTER":78.574,"MEAN_ANOMALY":281.5554,"EPHEMERIS_TYPE":0,"CLASSIFICATION_TYPE":"U","NORAD_CAT_ID":61605,"ELEMENT_SET_NO":999,"REV_AT_EPOCH":5847,"BSTAR":0.0012777273,"MEAN_MOTION_DOT":4.59e-6,"MEAN_MOTION_DDOT":0},{"OBJECT_NAME":"ONEWEB-0700","OBJECT_ID":"2024-188N","EPOCH":"2025-12-09T13:05:00.940128","MEAN_MOTION":13.10375393,"ECCENTRICITY":9.089e-5,"INCLINATION":87.8828,"RA_OF_ASC_NODE":73.9507,"ARG_OF_PERICENTER":91.4964,"MEAN_ANOMALY":268.6268,"EPHEMERIS_TYPE":0,"CLASSIFICATION_TYPE":"U","NORAD_CAT_ID":61606,"ELEMENT_SET_NO":999,"REV_AT_EPOCH":5846,"BSTAR":0.0014352939,"MEAN_MOTION_DOT":5.14e-6,"MEAN_MOTION_DDOT":0},{"OBJECT_NAME":"ONEWEB-0701","OBJECT_ID":"2024-188P","EPOCH":"2025-12-09T11:38:58.209216","MEAN_MOTION":13.10371482,"ECCENTRICITY":0.00014475,"INCLINATION":87.8813,"RA_OF_ASC_NODE":74.0786,"ARG_OF_PERICENTER":72.3673,"MEAN_ANOMALY":287.7612,"EPHEMERIS_TYPE":0,"CLASSIFICATION_TYPE":"U","NORAD_CAT_ID":61607,"ELEMENT_SET_NO":999,"REV_AT_EPOCH":5846,"BSTAR":0.0015625327,"MEAN_MOTION_DOT":5.58e-6,"MEAN_MOTION_DDOT":0},{"OBJECT_NAME":"ONEWEB-0702","OBJECT_ID":"2024-188Q","EPOCH":"2025-12-09T11:57:38.453472","MEAN_MOTION":13.11423346,"ECCENTRICITY":0.00011033,"INCLINATION":87.8833,"RA_OF_ASC_NODE":58.7489,"ARG_OF_PERICENTER":62.9116,"MEAN_ANOMALY":297.2124,"EPHEMERIS_TYPE":0,"CLASSIFICATION_TYPE":"U","NORAD_CAT_ID":61608,"ELEMENT_SET_NO":999,"REV_AT_EPOCH":5962,"BSTAR":0.00061614171,"MEAN_MOTION_DOT":2.31e-6,"MEAN_MOTION_DDOT":0},{"OBJECT_NAME":"ONEWEB-0704","OBJECT_ID":"2024-188R","EPOCH":"2025-12-09T13:12:11.531808","MEAN_MOTION":13.10375116,"ECCENTRICITY":9.791e-5,"INCLINATION":87.8828,"RA_OF_ASC_NODE":74.03,"ARG_OF_PERICENTER":70.4786,"MEAN_ANOMALY":289.6448,"EPHEMERIS_TYPE":0,"CLASSIFICATION_TYPE":"U","NORAD_CAT_ID":61609,"ELEMENT_SET_NO":999,"REV_AT_EPOCH":5845,"BSTAR":0.0019357387,"MEAN_MOTION_DOT":6.88e-6,"MEAN_MOTION_DDOT":0},{"OBJECT_NAME":"ONEWEB-0705","OBJECT_ID":"2024-188S","EPOCH":"2025-12-09T13:19:21.806400","MEAN_MOTION":13.10374596,"ECCENTRICITY":7.389e-5,"INCLINATION":87.8816,"RA_OF_ASC_NODE":74.0515,"ARG_OF_PERICENTER":142.4404,"MEAN_ANOMALY":217.6775,"EPHEMERIS_TYPE":0,"CLASSIFICATION_TYPE":"U","NORAD_CAT_ID":61610,"ELEMENT_SET_NO":999,"REV_AT_EPOCH":5062,"BSTAR":0.0024446015,"MEAN_MOTION_DOT":8.66e-6,"MEAN_MOTION_DDOT":0},{"OBJECT_NAME":"ONEWEB-0706","OBJECT_ID":"2024-188T","EPOCH":"2025-12-09T12:57:50.592096","MEAN_MOTION":13.10375777,"ECCENTRICITY":0.00010035,"INCLINATION":87.8811,"RA_OF_ASC_NODE":74.0756,"ARG_OF_PERICENTER":93.6851,"MEAN_ANOMALY":266.4391,"EPHEMERIS_TYPE":0,"CLASSIFICATION_TYPE":"U","NORAD_CAT_ID":61611,"ELEMENT_SET_NO":999,"REV_AT_EPOCH":5854,"BSTAR":0.00079532805,"MEAN_MOTION_DOT":2.9e-6,"MEAN_MOTION_DDOT":0},{"OBJECT_NAME":"ONEWEB-0707","OBJECT_ID":"2024-188U","EPOCH":"2025-12-09T07:37:33.271680","MEAN_MOTION":13.10374495,"ECCENTRICITY":0.0001053,"INCLINATION":87.8824,"RA_OF_ASC_NODE":74.0973,"ARG_OF_PERICENTER":90.127,"MEAN_ANOMALY":269.9978,"EPHEMERIS_TYPE":0,"CLASSIFICATION_TYPE":"U","NORAD_CAT_ID":61612,"ELEMENT_SET_NO":999,"REV_AT_EPOCH":5845,"BSTAR":0.0017604,"MEAN_MOTION_DOT":6.27e-6,"MEAN_MOTION_DDOT":0},{"OBJECT_NAME":"ONEWEB-0708","OBJECT_ID":"2024-188V","EPOCH":"2025-12-09T11:43:44.933664","MEAN_MOTION":13.10371121,"ECCENTRICITY":0.00013978,"INCLINATION":87.8805,"RA_OF_ASC_NODE":74.0986,"ARG_OF_PERICENTER":125.0994,"MEAN_ANOMALY":235.0265,"EPHEMERIS_TYPE":0,"CLASSIFICATION_TYPE":"U","NORAD_CAT_ID":61613,"ELEMENT_SET_NO":999,"REV_AT_EPOCH":5845,"BSTAR":0.0013512255,"MEAN_MOTION_DOT":4.84e-6,"MEAN_MOTION_DDOT":0}]
